#aV2011 10  7  0  0   .00000000      96 DD+AD WGS84 FIT  NGA
## 1656 432000.00000000   900.00000000 55841  .0000000000000
+   31     1  2  3  4  5  6  7  8  9 10 11 12 13 14 15 16 17
+         18 19 20 21 22 23 25 26 27 28 29 30 31 32  0  0  0
+          0  0  0  0  0  0  0  0  0  0  0  0  0  0  0  0  0
+          0  0  0  0  0  0  0  0  0  0  0  0  0  0  0  0  0
+          0  0  0  0  0  0  0  0  0  0  0  0  0  0  0  0  0
++         0  0  0  0  0  0  0  0  0  0  0  0  0  0  0  0  0
++         0  0  0  0  0  0  0  0  0  0  0  0  0  0  0  0  0
++         0  0  0  0  0  0  0  0  0  0  0  0  0  0  0  0  0
++         0  0  0  0  0  0  0  0  0  0  0  0  0  0  0  0  0
++         0  0  0  0  0  0  0  0  0  0  0  0  0  0  0  0  0
%c cc cc ccc ccc cccc cccc cccc cccc ccccc ccccc ccccc ccccc
%c cc cc ccc ccc cccc cccc cccc cccc ccccc ccccc ccccc ccccc
%f  0.0000000  0.000000000  0.00000000000  0.000000000000000
%f  0.0000000  0.000000000  0.00000000000  0.000000000000000
%i    0    0    0    0      0      0      0      0         0
%i    0    0    0    0      0      0      0      0         0
/*      NGA, ST. LOUIS,MO.                                  
/*   EPHEMERIS COMPUTED FROM  3 DAYS OF DATA                
/* CCCCCCCCCCCCCCCCCCCCCCCCCCCCCCCCCCCCCCCCCCCCCCCCCCCCCCCCC
/* CCCCCCCCCCCCCCCCCCCCCCCCCCCCCCCCCCCCCCCCCCCCCCCCCCCCCCCCC
*  2011 10  7  7 30   .00000000                                                 
P  1 -19286.357298  -7519.752717  16629.811504      4.765070                    
V  1 -10479.394975 -18449.657831 -20480.752062       .366977                    
P  2  13998.628468  22790.343516   2214.194363    359.647644                    
V  2  -4040.893360   -455.017774  30786.412031       .018044                    
P  3 -12528.115294 -12801.735907 -20141.841206    778.018977                    
V  3  23921.185226  -6017.741327 -11009.303145       .051205                    
P  4   2321.927164  22017.073747  14195.320740    253.144030                    
V  4 -12841.387533 -13779.351124  23441.126040       .113217                    
P  5   6450.598064  17489.244853 -18889.273972   -228.360421                    
V  5 -11867.635598  20944.511949  15465.763192      -.051674                    
P  6  -7558.418540 -14495.583803 -20833.372414    -54.481107                    
V  6  26524.395499  -4024.763638  -6528.281143       .076940                    
P  7 -13188.606812   7013.575771 -21956.092400     30.473134                    
V  7 -15327.621634 -23259.705112   1540.894726       .019720                    
P  8  -6541.940171  15412.133209 -20409.652419       .048119                    
V  8 -13451.293975 -22384.265861 -13119.080827       .000487                    
P  9  19197.402392  11699.879942  13572.771750    110.166155                    
V  9   8917.034738  15892.906664 -25323.399890       .023236                    
P 10  -8161.297507  24507.206744  -5449.496624    -15.477553                    
V 10  -6114.435125   4425.696194  30684.145548      -.011866                    
P 11 -22843.394418 -10619.815281   8571.773327   -192.516117                    
V 11  -5715.583827 -10805.608059 -27145.803438      -.034947                    
P 12  16148.683507   -353.089383  21056.606617     26.972770                    
V 12 -11471.430316  24134.622339   9370.966605       .023581                    
P 13 -25036.489529   4755.168353  -7774.365850    247.880588                    
V 13  -9611.055468  -1872.444451  30253.177128      -.019256                    
P 14   9273.283469 -13972.048979  20735.190572    175.685033                    
V 14  25919.245702    537.576363 -11469.529673       .017395                    
P 15  24019.318346   5228.806307 -10277.438989   -103.474428                    
V 15 -12729.900847   3867.781575 -27577.272794       .013684                    
P 16  -6460.764199 -16307.625983 -19834.620168   -201.963705                    
V 16  12888.127363 -21760.609406  13967.952139      -.021496                    
P 17  -9196.219081  14540.624756  20314.009559    171.880576                    
V 17 -25562.573730   -127.114649 -11796.165987      -.018871                    
P 18  16719.876964 -18039.979040  -9193.010230    160.927952                    
V 18  -2192.705159  12681.650901 -28220.534997       .018488                    
P 19 -22089.655632  -8873.866239 -12179.696454   -191.651493                    
V 19  15320.592647  -1885.042579 -26114.695247      -.040381                    
P 20 -17146.028609   2121.451531  20010.528428     54.004387                    
V 20   9162.245924 -24215.809847  10409.840586       .005717                    
P 21  11464.983441 -10798.569483 -20906.401191   -176.290972                    
V 21  15932.503948  22713.785264  -3530.744485      -.024713                    
P 22   9586.474508 -24494.448562   3404.805237    144.080316                    
V 22   5299.442957  -1955.005495 -30712.771111      -.000379                    
P 23 -26674.880303     48.172019   2162.010644    269.966179                    
V 23   2541.114835  -2589.527170  31402.406634      -.031376                    
P 25  17665.864599 -12261.922482  15542.286060     22.187939                    
V 25  -6713.383025  18710.041226  22377.329014       .017941                    
P 26  14634.122185  12689.445625 -18944.413815   -182.151162                    
V 26 -22628.098449    504.064926 -17328.561791      -.129918                    
P 27  19660.747012  15755.805203   9633.650882    312.663276                    
V 27   5434.172861   9873.753988 -28842.963050       .037801                    
P 28 -12102.215606  23483.110525    815.523258     73.513507                    
V 28  -2434.265838   -860.532527 -32236.876650       .030949                    
P 29  24929.873173  -5674.547567  -7053.601134    246.219473                    
V 29   9127.388645   2400.952051  30092.971631       .033960                    
P 30  11712.407069 -23426.236055   4157.293855     73.459055                    
V 30    757.972807   6397.457234  31065.989409      -.063644                    
P 31  -5188.183603 -22937.641568  12332.213462    151.910856                    
V 31  10052.223619  11808.030946  26832.620059       .053497                    
P 32 -13300.112979  -7947.079999  21830.402897   -341.316912                    
V 32  13765.515438 -23383.000166    310.253497      -.064056                    
EOF
